ONEWEB-0333             
1 49199U 21083P   23059.46802565  .00000152  00000+0  38001-3 0  9993
2 49199  87.9077 199.6465 0001365  99.7491 260.3792 13.13467672 72767
ONEWEB-0333             
1 49199U 21083P   23059.46802565  .00000152  00000+0  38001-3 0  9993
2 49199  87.9077 199.6465 0001365  99.7491 260.3792 13.13467672 74051
ONEWEB-0333             
1 49199U 21083P   23059.92509311  .00000081  00000+0  18810-3 0  9994
2 49199  87.9080 199.5562 0001361 100.2181 259.9102 13.13467760 72822
ONEWEB-0333             
1 49199U 21083P   23060.68687001  .00000356  00000+0  93964-3 0  9990
2 49199  87.9081 199.4057 0001365 101.1233 259.0050 13.13468337 74212
ONEWEB-0333             
1 49199U 21083P   23060.83922675  .00000232  00000+0  60075-3 0  9996
2 49199  87.9082 199.3756 0001351 101.0406 259.0875 13.13467375 72948
ONEWEB-0333             
1 49199U 21083P   23061.82953432  .00000510  00000+0  13611-2 0  9993
2 49199  87.9083 199.1802 0001323 103.3242 256.8035 13.13469789 73070
ONEWEB-0333             
1 49199U 21083P   23061.82953432  .00000510  00000+0  13611-2 0  9993
2 49199  87.9083 199.1802 0001323 103.3242 256.8035 13.13469789 74363
ONEWEB-0333             
1 49199U 21083P   23062.43895388  .00000558  00000+0  14936-2 0  9999
2 49199  87.9082 199.0597 0001310 104.0725 256.0549 13.13470929 73158
